[{"OBJECT_NAME":"STARLINK-5644","OBJECT_ID":"2023-013AQ","EPOCH":"2026-03-09T01:10:03.131904","MEAN_MOTION":15.02537816,"ECCENTRICITY":0.00014034,"INCLINATION":43.0029,"RA_OF_ASC_NODE":316.749,"ARG_OF_PERICENTER":267.6266,"MEAN_ANOMALY":92.4415,"EPHEMERIS_TYPE":0,"CLASSIFICATION_TYPE":"U","NORAD_CAT_ID":55369,"ELEMENT_SET_NO":999,"REV_AT_EPOCH":17146,"BSTAR":6.470814e-6,"MEAN_MOTION_DOT":-1.16e-6,"MEAN_MOTION_DDOT":0},{"OBJECT_NAME":"NOAA 16 DEB","OBJECT_ID":"2000-055NX","EPOCH":"2026-03-08T23:11:13.556832","MEAN_MOTION":15.01016664,"ECCENTRICITY":0.00157984,"INCLINATION":98.8636,"RA_OF_ASC_NODE":259.6913,"ARG_OF_PERICENTER":295.8562,"MEAN_ANOMALY":64.1029,"EPHEMERIS_TYPE":0,"CLASSIFICATION_TYPE":"U","NORAD_CAT_ID":41658,"ELEMENT_SET_NO":999,"REV_AT_EPOCH":9741,"BSTAR":0.010110988,"MEAN_MOTION_DOT":0.00131742,"MEAN_MOTION_DDOT":0}]
